STARLINK-1857_new
1 17144C 20088Y   21326.01859747 -.00017020  00000-0 -11402-2 0  3269
2 17144  53.0532 123.6556 0001577  82.2967 223.4512 15.06420311    15
STARLINK-1857_old
1 27144C 20088Y   21325.10557851  .00000383  00000-0  25636-4 0  3256
2 27144  53.0531 127.7543 0001638  82.6735 308.9762 15.06405746    11
